{
  "type": "FeatureCollection",
  "features": [
    {
      "type": "Feature",
      "properties": {
        "norad_id": 44333,
        "name": "AT&T T-16",
        "group": "intelsat",
        "lat": -0.02190417786801115,
        "lon": -75.94418994554678,
        "alt_km": 35788.011815474565,
        "timestamp": "2025-12-03T20:47:57.884912+00:00",
        "meta_object_name": "AT&T T-16",
        "meta_object_id": "2019-034A",
        "meta_epoch": "2025-12-03T09:51:05.656896",
        "meta_mean_motion": 1.00268504,
        "meta_eccentricity": 4.72e-05,
        "meta_inclination": 0.0319,
        "meta_ra_of_asc_node": 73.4258,
        "meta_arg_of_pericenter": 90.2929,
        "meta_mean_anomaly": 315.6945,
        "meta_ephemeris_type": 0,
        "meta_classification_type": "U",
        "meta_norad_cat_id": 44333,
        "meta_element_set_no": 999,
        "meta_rev_at_epoch": 2367,
        "meta_bstar": 0,
        "meta_mean_motion_dot": -9.6e-07,
        "meta_mean_motion_ddot": 0,
        "tle_line1": "1 44333U 19034A   25337.41048214 -.00000096  00000+0  00000+0 0  9992",
        "tle_line2": "2 44333   0.0319  73.4258 0000472  90.2929 315.6945  1.00268504 23672"
      },
      "geometry": {
        "type": "Point",
        "coordinates": [
          -75.94418994554678,
          -0.02190417786801115
        ]
      }
    },
    {
      "type": "Feature",
      "properties": {
        "norad_id": 44476,
        "name": "INTELSAT 39 (IS-39)",
        "group": "intelsat",
        "lat": 0.03328821551480751,
        "lon": 86.85450347664843,
        "alt_km": 35785.136935945724,
        "timestamp": "2025-12-03T20:47:57.884923+00:00",
        "meta_object_name": "INTELSAT 39 (IS-39)",
        "meta_object_id": "2019-049B",
        "meta_epoch": "2025-12-03T10:37:31.211040",
        "meta_mean_motion": 1.00270208,
        "meta_eccentricity": 8.72e-05,
        "meta_inclination": 0.017,
        "meta_ra_of_asc_node": 317.794,
        "meta_arg_of_pericenter": 197.2912,
        "meta_mean_anomaly": 138.7759,
        "meta_ephemeris_type": 0,
        "meta_classification_type": "U",
        "meta_norad_cat_id": 44476,
        "meta_element_set_no": 999,
        "meta_rev_at_epoch": 2316,
        "meta_bstar": 0,
        "meta_mean_motion_dot": 5.2e-07,
        "meta_mean_motion_ddot": 0,
        "tle_line1": "1 44476U 19049B   25337.44272235  .00000052  00000+0  00000+0 0  9992",
        "tle_line2": "2 44476   0.0170 317.7940 0000872 197.2912 138.7759  1.00270208 23166"
      },
      "geometry": {
        "type": "Point",
        "coordinates": [
          86.85450347664843,
          0.03328821551480751
        ]
      }
    },
    {
      "type": "Feature",
      "properties": {
        "norad_id": 46114,
        "name": "GALAXY 30 (G-30)",
        "group": "intelsat",
        "lat": -0.033281563778014056,
        "lon": -100.06800228873922,
        "alt_km": 35775.469510780626,
        "timestamp": "2025-12-03T20:47:57.884935+00:00",
        "meta_object_name": "GALAXY 30 (G-30)",
        "meta_object_id": "2020-056C",
        "meta_epoch": "2025-12-03T11:13:38.603424",
        "meta_mean_motion": 1.00272752,
        "meta_eccentricity": 0.0002454,
        "meta_inclination": 0.0148,
        "meta_ra_of_asc_node": 313.4363,
        "meta_arg_of_pericenter": 299.3603,
        "meta_mean_anomaly": 223.181,
        "meta_ephemeris_type": 0,
        "meta_classification_type": "U",
        "meta_norad_cat_id": 46114,
        "meta_element_set_no": 999,
        "meta_rev_at_epoch": 1933,
        "meta_bstar": 0,
        "meta_mean_motion_dot": 5.5e-07,
        "meta_mean_motion_ddot": 0,
        "tle_line1": "1 46114U 20056C   25337.46780791  .00000055  00000+0  00000+0 0  9999",
        "tle_line2": "2 46114   0.0148 313.4363 0002454 299.3603 223.1810  1.00272752 19330"
      },
      "geometry": {
        "type": "Point",
        "coordinates": [
          -100.06800228873922,
          -0.033281563778014056
        ]
      }
    },
    {
      "type": "Feature",
      "properties": {
        "norad_id": 54026,
        "name": "GALAXY 33 (G-33)",
        "group": "intelsat",
        "lat": -0.03766779551784885,
        "lon": -108.06798851830854,
        "alt_km": 35777.566933785165,
        "timestamp": "2025-12-03T20:47:57.884947+00:00",
        "meta_object_name": "GALAXY 33 (G-33)",
        "meta_object_id": "2022-128A",
        "meta_epoch": "2025-12-02T16:34:35.368896",
        "meta_mean_motion": 1.00272458,
        "meta_eccentricity": 0.0001946,
        "meta_inclination": 0.0146,
        "meta_ra_of_asc_node": 335.983,
        "meta_arg_of_pericenter": 271.3406,
        "meta_mean_anomaly": 300.1238,
        "meta_ephemeris_type": 0,
        "meta_classification_type": "U",
        "meta_norad_cat_id": 54026,
        "meta_element_set_no": 999,
        "meta_rev_at_epoch": 1177,
        "meta_bstar": 0,
        "meta_mean_motion_dot": 9.9e-07,
        "meta_mean_motion_ddot": 0,
        "tle_line1": "1 54026U 22128A   25336.69068714  .00000099  00000+0  00000+0 0  9998",
        "tle_line2": "2 54026   0.0146 335.9830 0001946 271.3406 300.1238  1.00272458 11776"
      },
      "geometry": {
        "type": "Point",
        "coordinates": [
          -108.06798851830854,
          -0.03766779551784885
        ]
      }
    },
    {
      "type": "Feature",
      "properties": {
        "norad_id": 54027,
        "name": "GALAXY 34 (G-34)",
        "group": "intelsat",
        "lat": -0.03568205602368293,
        "lon": -104.068421713514,
        "alt_km": 35779.63747806265,
        "timestamp": "2025-12-03T20:47:57.884959+00:00",
        "meta_object_name": "GALAXY 34 (G-34)",
        "meta_object_id": "2022-128B",
        "meta_epoch": "2025-12-03T04:34:54.578208",
        "meta_mean_motion": 1.00273357,
        "meta_eccentricity": 0.0001417,
        "meta_inclination": 0.0131,
        "meta_ra_of_asc_node": 329.5107,
        "meta_arg_of_pericenter": 278.9008,
        "meta_mean_anomaly": 123.608,
        "meta_ephemeris_type": 0,
        "meta_classification_type": "U",
        "meta_norad_cat_id": 54027,
        "meta_element_set_no": 999,
        "meta_rev_at_epoch": 1194,
        "meta_bstar": 0,
        "meta_mean_motion_dot": 7.8e-07,
        "meta_mean_motion_ddot": 0,
        "tle_line1": "1 54027U 22128B   25337.19090947  .00000078  00000+0  00000+0 0  9995",
        "tle_line2": "2 54027   0.0131 329.5107 0001417 278.9008 123.6080  1.00273357 11942"
      },
      "geometry": {
        "type": "Point",
        "coordinates": [
          -104.068421713514,
          -0.03568205602368293
        ]
      }
    },
    {
      "type": "Feature",
      "properties": {
        "norad_id": 54243,
        "name": "GALAXY 31 (G-31)",
        "group": "intelsat",
        "lat": -0.032643882571613284,
        "lon": -96.10264679234709,
        "alt_km": 35777.14033611882,
        "timestamp": "2025-12-03T20:47:57.884970+00:00",
        "meta_object_name": "GALAXY 31 (G-31)",
        "meta_object_id": "2022-153A",
        "meta_epoch": "2025-12-03T09:45:21.206880",
        "meta_mean_motion": 1.00271933,
        "meta_eccentricity": 0.0002102,
        "meta_inclination": 0.0123,
        "meta_ra_of_asc_node": 353.3505,
        "meta_arg_of_pericenter": 274.41,
        "meta_mean_anomaly": 190.0557,
        "meta_ephemeris_type": 0,
        "meta_classification_type": "U",
        "meta_norad_cat_id": 54243,
        "meta_element_set_no": 999,
        "meta_rev_at_epoch": 517,
        "meta_bstar": 0,
        "meta_mean_motion_dot": 0,
        "meta_mean_motion_ddot": 0,
        "tle_line1": "1 54243U 22153A   25337.40649545  .00000000  00000+0  00000+0 0  9996",
        "tle_line2": "2 54243   0.0123 353.3505 0002102 274.4100 190.0557  1.00271933  5179"
      },
      "geometry": {
        "type": "Point",
        "coordinates": [
          -96.10264679234709,
          -0.032643882571613284
        ]
      }
    },
    {
      "type": "Feature",
      "properties": {
        "norad_id": 54244,
        "name": "GALAXY 32 (G-32)",
        "group": "intelsat",
        "lat": -0.017219300968197446,
        "lon": -66.08603912348292,
        "alt_km": 35776.010667396746,
        "timestamp": "2025-12-03T20:47:57.884981+00:00",
        "meta_object_name": "GALAXY 32 (G-32)",
        "meta_object_id": "2022-153B",
        "meta_epoch": "2025-12-03T09:53:57.883200",
        "meta_mean_motion": 1.00270465,
        "meta_eccentricity": 0.0002527,
        "meta_inclination": 0.0104,
        "meta_ra_of_asc_node": 325.3204,
        "meta_arg_of_pericenter": 338.9424,
        "meta_mean_anomaly": 185.7348,
        "meta_ephemeris_type": 0,
        "meta_classification_type": "U",
        "meta_norad_cat_id": 54244,
        "meta_element_set_no": 999,
        "meta_rev_at_epoch": 1118,
        "meta_bstar": 0,
        "meta_mean_motion_dot": -1.56e-06,
        "meta_mean_motion_ddot": 0,
        "tle_line1": "1 54244U 22153B   25337.41247550 -.00000156  00000+0  00000+0 0  9991",
        "tle_line2": "2 54244   0.0104 325.3204 0002527 338.9424 185.7348  1.00270465 11186"
      },
      "geometry": {
        "type": "Point",
        "coordinates": [
          -66.08603912348292,
          -0.017219300968197446
        ]
      }
    }
  ]
}